              TDR Cartesian                         TDR Cartesian  
    -----------------------------------       --------------------------------
     X    =      -16019179.21                 X    =        -4882645.82
     Y    =       12106001.45  feet           Y    =         3689909.24  meter
     Z    =        9580362.28                 Z    =         2920094.42
     XDOT =     -15837.299845                 XDOT =       -4827.208993
     YDOT =      -7880.845989  feet/sec       YDOT =       -2402.081857  meter/sec
     ZDOT =     -16486.093976                 ZDOT =       -5024.961444
  
  
    The mean element set is posted at the UTC for which position is
    just north of the next ascending node relative to the above
    vector time
 
 
    TWO LINE MEAN ELEMENT SET
  
    ISS
    1 25544U 98067A   16066.21120417  .00016717  00000-0  10270-3 0  9071
    2 25544  51.6408 211.5687 0003679 246.4719 113.6047 15.53826163 28961
  
  
    Satellite: ISS
    Catalog Number: 25544
    Epoch time:      16066.21120417   =   yrday.fracday
    Element set:     907
    Inclination:       51.6408  deg
    RA of node:       211.5687  deg
    Eccentricity:     .0003679     
    Arg of perigee:   246.4719  deg
    Mean anomaly:     113.6047  deg
    Mean motion:   15.53826163  rev/day
    Decay rate:    1.67170E-04  rev/day^2
    Epoch rev:            2896
    Checksum:              316
 
 
    Coasting Arc #9 (Orbit 2910)
    ---------------------------------------
 
    Vector Time (GMT): 2016/067/04:09:13.568
    Vector Time (MET): N/A
    Weight (LBS)     : 890679.4
 
              M50 Cartesian                         M50 Keplerian  
    -----------------------------------       --------------------------------
     X    =       -6383097.74                 A    =         6789179.99  meter
     Y    =       -1820406.17  meter          E    =           .0005764
     Z    =       -1410654.97                 I    =           51.49401
     XDOT =        158.405121                 Wp   =           16.30807
     YDOT =      -5028.850675  meter/sec      RA   =          205.65239  deg
     ZDOT =       5783.973429                 TA   =          328.28641
                                              MA   =          328.32112
                                              Ha   =            220.173  n.mi
                                              Hp   =            216.362
 
              M50 Cartesian                         J2K Cartesian  
    -----------------------------------       --------------------------------
     X    =      -20941921.72                 X    =        -6355414.87
     Y    =       -5972461.18  feet           Y    =        -1891631.60  meter
     Z    =       -4628133.11                 Z    =        -1441594.43
     XDOT =        519.701842                 XDOT =         186.531656
     YDOT =     -16498.853919  feet/sec       YDOT =       -5026.921288  meter/sec
     ZDOT =      18976.290779                 ZDOT =        5784.811857
 
              TDR Cartesian                         TDR Cartesian  
    -----------------------------------       --------------------------------
     X    =       18674410.36                 X    =         5691960.28
     Y    =      -11146437.09  feet           Y    =        -3397434.02  meter
     Z    =       -4762072.23                 Z    =        -1451479.62
     XDOT =      10935.324913                 XDOT =        3333.087034
     YDOT =      10226.836382  feet/sec       YDOT =        3117.139729  meter/sec
     ZDOT =      18980.717311                 ZDOT =        5785.322636
  
  
    The mean element set is posted at the UTC for which position is
    just north of the next ascending node relative to the above
    vector time
 
 
    TWO LINE MEAN ELEMENT SET
  
    ISS
    1 25544U 98067A   16067.17590594  .00016717  00000-0  10270-3 0  9085
    2 25544  51.6417 206.7606 0003745 252.3644 107.7100 15.53871476 29114
  
  
    Satellite: ISS
    Catalog Number: 25544
    Epoch time:      16067.17590594   =   yrday.fracday
    Element set:     908
    Inclination:       51.6417  deg
    RA of node:       206.7606  deg
    Eccentricity:     .0003745     
    Arg of perigee:   252.3644  deg
    Mean anomaly:     107.7100  deg
    Mean motion:   15.53871476  rev/day
    Decay rate:    1.67170E-04  rev/day^2
    Epoch rev:            2911
    Checksum:              313
 
 
    Coasting Arc #10 (Orbit 2926)
    ---------------------------------------
 
    Vector Time (GMT): 2016/068/04:09:13.568
    Vector Time (MET): N/A
    Weight (LBS)     : 890679.4
 
              M50 Cartesian                         M50 Keplerian  
    -----------------------------------       --------------------------------
     X    =        6280473.50                 A    =         6790143.40  meter
     Y    =        2555132.08  meter          E    =           .0010445
     Z    =        -218057.58                 I    =           51.52660
     XDOT =      -1974.216315                 Wp   =          154.89527
     YDOT =       4350.428348  meter/sec      RA   =          200.67386  deg
     ZDOT =      -5999.001822                 TA   =           27.45780
                                              MA   =           27.40265
                                              Ha   =            220.192  n.mi
                                              Hp   =            216.444
 
              M50 Cartesian                         J2K Cartesian  
    -----------------------------------       --------------------------------
     X    =       20605228.01                 X    =         6252493.81
     Y    =        8382979.27  feet           Y    =         2625208.03  meter
     Z    =        -715412.00                 Z    =         -187617.44
     XDOT =      -6477.087648                 XDOT =       -1993.577058
     YDOT =      14273.058885  feet/sec       YDOT =        4328.242223  meter/sec
     ZDOT =     -19681.764509                 ZDOT =       -6008.639572
 
              TDR Cartesian                         TDR Cartesian  
    -----------------------------------       --------------------------------
     X    =      -20060850.73                 X    =        -6114547.30
     Y    =        9622010.96  feet           Y    =         2932788.94  meter
     Z    =        -583738.03                 Z    =         -177923.35
     XDOT =      -5594.482188                 XDOT =       -1705.198171
     YDOT =     -12832.495369  feet/sec       YDOT =       -3911.344589  meter/sec
     ZDOT =     -19724.256056                 ZDOT =       -6011.953246
  
  
    The mean element set is posted at the UTC for which position is
    just north of the next ascending node relative to the above
    vector time
 
 
    TWO LINE MEAN ELEMENT SET
  
    ISS
    1 25544U 98067A   16068.20491152  .00016717  00000-0  10270-3 0  9091
    2 25544  51.6422 201.6325 0003790 255.1876 104.8857 15.53844061 29274
  
  
    Satellite: ISS
    Catalog Number: 25544
    Epoch time:      16068.20491152   =   yrday.fracday
    Element set:     909
    Inclination:       51.6422  deg
    RA of node:       201.6325  deg
    Eccentricity:     .0003790     
    Arg of perigee:   255.1876  deg
    Mean anomaly:     104.8857  deg
    Mean motion:   15.53844061  rev/day
    Decay rate:    1.67170E-04  rev/day^2
    Epoch rev:            2927
    Checksum:              309
 
 
    Coasting Arc #11 (Orbit 2942)
    ---------------------------------------
 
    Vector Time (GMT): 2016/069/04:09:13.568
    Vector Time (MET): N/A
    Weight (LBS)     : 890679.4
 
              M50 Cartesian                         M50 Keplerian  
    -----------------------------------       --------------------------------
     X    =       -5749077.70                 A    =         6788697.31  meter
     Y    =       -3110386.52  meter          E    =           .0010451
     Z    =        1812598.16                 I    =           51.55270
     XDOT =       3735.900743                 Wp   =           59.30067
     YDOT =      -3604.931961  meter/sec      RA   =          195.69600  deg
     ZDOT =       5644.278281                 TA   =          320.64912
                                              MA   =          320.72501
                                              Ha   =            220.047  n.mi
                                              Hp   =            216.445
 
              M50 Cartesian                         J2K Cartesian  
    -----------------------------------       --------------------------------
     X    =      -18861803.49                 X    =        -5722674.02
     Y    =      -10204680.19  feet           Y    =        -3174528.61  meter
     Z    =        5946844.37                 Z    =         1784735.56
     XDOT =      12256.892203                 XDOT =        3748.517191
     YDOT =     -11827.204595  feet/sec       YDOT =       -3563.083193  meter/sec
     ZDOT =      18517.973363                 ZDOT =        5662.457342
 
              TDR Cartesian                         TDR Cartesian  
    -----------------------------------       --------------------------------
     X    =       20134058.95                 X    =         6136861.17
     Y    =       -7479339.27  feet           Y    =        -2279702.61  meter
     Z    =        5826426.07                 Z    =         1775894.67
     XDOT =        340.858168                 XDOT =         103.893570
     YDOT =      15454.578827  feet/sec       YDOT =        4710.555626  meter/sec
     ZDOT =      18597.409874                 ZDOT =        5668.490530
  
  
    The mean element set is posted at the UTC for which position is
    just north of the next ascending node relative to the above
    vector time
 
 
    TWO LINE MEAN ELEMENT SET
  
    ISS
    1 25544U 98067A   16069.23390419  .00016717  00000-0  10270-3 0  9101
    2 25544  51.6426 196.5039 0003753 263.8230  96.2495 15.53886921 29432
  
